{"type":"FeatureCollection","features":[{"type":"Feature","properties":{"name":"Tolbo_Deluun","status":"mitigated"},"geometry":{"type":"LineString","coordinates":[[90.70577,47.87268],[90.29707,48.4152]]}},{"type":"Feature","properties":{"name":"Deluun-Gantsmod","status":"mitigated"},"geometry":{"type":"LineString","coordinates":[[90.706,47.87235],[90.51039,47.59486]]}},{"type":"Feature","properties":{"name":"BayanAdarga - Binder","status":"mitigated"},"geometry":{"type":"LineString","coordinates":[[110.61224,48.61551],[110.6365,48.59054],[110.73536,48.54552],[110.84339,48.55843],[110.85917,48.55864],[110.92274,48.53752],[110.99371,48.52754],[111.06419,48.54832],[111.08781,48.55691],[111.09518,48.55036]]}},{"type":"Feature","properties":{"name":"BayanAdarga - Norovlin","status":"mitigated"},"geometry":{"type":"LineString","coordinates":[[111.99424,48.6902],[111.88169,48.6297],[111.84256,48.61886],[111.68567,48.54065],[111.47904,48.50313],[111.42673,48.51352],[111.39515,48.5085],[111.27408,48.55428],[111.24819,48.56603],[111.14327,48.56773],[111.09521,48.55034]]}},{"type":"Feature","properties":{"name":"BayanAdarga - Dadal","status":"mitigated"},"geometry":{"type":"LineString","coordinates":[[111.62797,49.02028],[111.61862,49.00169],[111.54033,48.89487],[111.38862,48.78977],[111.26683,48.71524],[111.23064,48.64193],[111.19509,48.59739],[111.13106,48.56336],[111.09521,48.55034]]}},{"type":"Feature","properties":{"name":"Binder - Batshireet","status":"mitigated"},"geometry":{"type":"LineString","coordinates":[[110.18398,48.69506],[110.24712,48.60822],[110.25068,48.59806],[110.27086,48.56072],[110.28364,48.54857],[110.30666,48.53722],[110.30987,48.53033],[110.34118,48.52289],[110.34591,48.51731],[110.3509,48.51418],[110.38593,48.50363],[110.45269,48.52225],[110.52763,48.53212],[110.5473,48.56355],[110.55719,48.57118],[110.5855,48.57811],[110.59133,48.58623],[110.60596,48.61324],[110.61195,48.61545]]}},{"type":"Feature","properties":{"name":"Khuld - Ulziit","status":"mitigated"},"geometry":{"type":"LineString","coordinates":[[106.3225,44.94139],[106.27927,44.93176],[106.23881,44.93678],[106.16757,44.97332],[106.16313,44.97596],[106.0224,45.09761],[105.98999,45.1138],[105.76024,45.18706],[105.70999,45.19826],[105.68075,45.20087],[105.58024,45.22203],[105.55138,45.22679]]}},{"type":"Feature","properties":{"name":"Khuld - TsogtOvoo","status":"mitigated"},"geometry":{"type":"LineString","coordinates":[[105.32264,44.42586],[105.40671,44.71475],[105.46487,44.7757],[105.56889,45.06794],[105.55165,45.18946],[105.55184,45.19243],[105.55701,45.19948],[105.55581,45.21398],[105.55117,45.22656]]}},{"type":"Feature","properties":{"name":"Khuld - Delgerkhangai","status":"mitigated"},"geometry":{"type":"LineString","coordinates":[[104.80484,45.24062],[104.80553,45.23942],[104.81409,45.23902],[104.84007,45.24016],[104.90715,45.23038],[104.9335,45.23449],[104.97324,45.24534],[105.0286,45.23173],[105.25182,45.22568],[105.38064,45.22982],[105.40887,45.22737],[105.4432,45.22675],[105.5119,45.22579],[105.54961,45.22711]]}},{"type":"Feature","properties":{"name":"Zuunbayan_Bag - Khuvsgul","status":"mitigated"},"geometry":{"type":"LineString","coordinates":[[109.64298,43.60941],[109.64638,43.63968],[109.62004,43.76915],[109.62196,43.77483],[109.624,43.77659],[109.62431,43.78102],[109.64476,43.8367],[109.75822,44.12661],[109.81897,44.18587],[109.84588,44.2929],[109.86086,44.30761],[109.89197,44.36023],[109.94749,44.38694],[110.02627,44.45891],[110.02595,44.45999],[110.02789,44.46029],[110.04032,44.47195],[110.05194,44.4789],[110.05598,44.48627]]}},{"type":"Feature","properties":{"name":"Zuunbayan_Bag - Ulaanbadrakh","status":"mitigated"},"geometry":{"type":"LineString","coordinates":[[110.42393,43.87326],[110.37762,43.90058],[110.35509,43.94036],[110.33313,44.10028],[110.27135,44.21354],[110.24622,44.28182],[110.05644,44.48617]]}},{"type":"Feature","properties":{"name":"Zuunbayan_Bag - KhamriinKhiid","status":"mitigated"},"geometry":{"type":"LineString","coordinates":[[110.27147,44.59675],[110.24225,44.59167],[110.19249,44.57587],[110.1241,44.52484],[110.06225,44.49191],[110.05641,44.48694]]}},{"type":"Feature","properties":{"name":"Sainshand - Saikhandulaan","status":"mitigated"},"geometry":{"type":"LineString","coordinates":[[109.02234,44.6927],[109.06829,44.68423],[109.18221,44.70369],[109.31417,44.75129],[109.40664,44.80332],[109.43471,44.80592],[109.58345,44.84286],[109.76061,44.86709],[109.89513,44.87995],[110.09914,44.88736],[110.11373,44.88619],[110.11667,44.88256],[110.13112,44.88673]]}},{"type":"Feature","properties":{"name":"TosonXIX-Matad","status":"mitigated"},"geometry":{"type":"LineString","coordinates":[[115.29742,46.94982],[115.34679,46.97456],[115.31113,46.95101],[115.36233,46.95],[115.58274,46.95704],[115.68427,46.93853],[115.82676,46.97507],[116.16665,46.9385],[116.256,46.96033]]}},{"type":"Feature","properties":{"name":"Ongon-Dariganga","status":"mitigated"},"geometry":{"type":"LineString","coordinates":[[113.146,45.35903],[113.14063,45.35899],[113.2018,45.33955],[113.23368,45.32083],[113.50988,45.32276],[113.80499,45.31042],[113.85153,45.30079],[113.84526,45.29989]]}},{"type":"Feature","properties":{"name":"Zereg-BagCenter","status":"mitigated"},"geometry":{"type":"LineString","coordinates":[[93.0282,47.05702],[93.01131,47.05438],[92.972,47.05787],[92.95424,47.07044],[92.92153,47.08145],[92.90963,47.08252],[92.90262,47.08814],[92.88218,47.09765],[92.84571,47.10772]]}},{"type":"Feature","properties":{"name":"Durgun-Zawkhan","status":"mitigated"},"geometry":{"type":"LineString","coordinates":[[92.81074,48.33547],[92.83386,48.34119],[92.83706,48.34095],[92.83898,48.34263],[92.91761,48.36157],[92.95471,48.36389],[92.95712,48.36513],[92.96384,48.37378],[93.05386,48.43791],[93.06512,48.46481],[93.0568,48.52374],[92.99909,48.55022],[93.01354,48.65115],[93.00775,48.66816],[93.00797,48.68842],[93.01039,48.69809],[93.08218,48.78465],[93.09685,48.81675],[93.10191,48.82247]]}},{"type":"Feature","properties":{"name":"Tsagaankhairkhan-Undurkhangai","status":"mitigated"},"geometry":{"type":"LineString","coordinates":[[94.84509,49.26606],[94.816,49.24326],[94.69953,49.22436],[94.56252,49.23228],[94.40416,49.23483],[94.38358,49.23975],[94.3756,49.23865],[94.35406,49.24964],[94.33927,49.24912],[94.32944,49.25383],[94.32385,49.25411],[94.32218,49.2567],[94.31561,49.25763],[94.31272,49.26271],[94.3085,49.26385],[94.30432,49.27085],[94.30046,49.27354],[94.2966,49.27469],[94.28855,49.27361],[94.28055,49.27959],[94.27204,49.28304],[94.26489,49.29209],[94.26531,49.29463],[94.25786,49.30379],[94.24526,49.31431],[94.24557,49.31692],[94.24302,49.32086],[94.24481,49.32962],[94.24403,49.33277],[94.25052,49.34528],[94.25216,49.35868],[94.25592,49.36559],[94.25473,49.36933],[94.25751,49.37327],[94.2551,49.37588],[94.25459,49.38484],[94.25565,49.38878],[94.25016,49.4007]]}},{"type":"Feature","properties":{"name":"Mankhan-Must","status":"mitigated"},"geometry":{"type":"LineString","coordinates":[[92.21464,47.40943],[92.57291,46.96143],[92.59618,46.94046],[92.61596,46.91227],[92.62127,46.90769],[92.63621,46.88992],[92.72449,46.7936],[92.78337,46.71525]]}},{"type":"Feature","properties":{"name":"Mankhan-Munkhkhairkhan","status":"mitigated"},"geometry":{"type":"LineString","coordinates":[[91.85628,47.05093],[91.86076,47.04795],[91.86281,47.04094],[91.86598,47.03865],[91.86634,47.03649],[91.87401,47.03015],[91.88809,47.02371],[91.89295,47.02317],[91.90268,47.01821],[91.9187,47.01468],[91.9277,47.01552],[91.93232,47.01733],[91.93991,47.02351],[91.95349,47.02637],[91.96406,47.02716],[91.97543,47.0257],[91.98503,47.03108],[92.00818,47.03805],[92.02131,47.04113],[92.02883,47.04158],[92.03746,47.04461],[92.05217,47.04468],[92.0658,47.03601],[92.07035,47.03501],[92.07372,47.03638],[92.076,47.04034],[92.07502,47.04201],[92.07836,47.05188],[92.0883,47.05469],[92.09331,47.06116],[92.09655,47.06794],[92.09286,47.07275],[92.09637,47.08351],[92.09459,47.08616],[92.09518,47.0902],[92.0978,47.09382],[92.10115,47.0955],[92.10219,47.10021],[92.10921,47.10681],[92.11166,47.11201],[92.12035,47.11953],[92.11897,47.12236],[92.12114,47.12626],[92.11834,47.13097],[92.1198,47.13574],[92.11859,47.14125],[92.1198,47.14592],[92.124,47.15003],[92.12608,47.15524],[92.12855,47.15516],[92.13766,47.1622],[92.14014,47.16687],[92.13758,47.16945],[92.13597,47.17449],[92.13756,47.1784],[92.14927,47.19826],[92.15334,47.20048],[92.16021,47.20705],[92.16215,47.21091],[92.17596,47.26483],[92.20077,47.34942],[92.19893,47.35978],[92.21352,47.41721],[92.22246,47.42709],[92.21607,47.45142],[92.22164,47.47543]]}},{"type":"Feature","properties":{"name":"Mankhan-Chandmani","status":"mitigated"},"geometry":{"type":"LineString","coordinates":[[92.81816,47.66554],[92.81668,47.66672],[92.80834,47.66422],[92.79475,47.65556],[92.78103,47.61968],[92.768,47.55894],[92.78262,47.4912],[92.77944,47.48789],[92.77975,47.48669],[92.77821,47.48598],[92.76905,47.4711],[92.76848,47.46811],[92.76536,47.46477],[92.76619,47.45879],[92.76214,47.45059],[92.75162,47.43687],[92.65674,47.41053],[92.53148,47.42937],[92.45904,47.44314],[92.27199,47.46577],[92.252,47.47004]]}},{"type":"Feature","properties":{"name":"Zawkhan-KhetsuuKhad","status":"mitigated"},"geometry":{"type":"LineString","coordinates":[[93.10158,48.82258],[93.09934,48.82353],[93.09734,48.8269],[93.10569,48.84757],[93.13951,48.87559],[93.14369,48.87771],[93.19015,48.89638],[93.24696,48.90502],[93.29134,48.91497],[93.353,48.926]]}},{"type":"Feature","properties":{"name":"TsetsenUul-Santmargats","status":"mitigated"},"geometry":{"type":"LineString","coordinates":[[95.45006,48.58872],[95.7089,48.63371],[95.77998,48.65057],[96.00589,48.75026],[96.00638,48.75034]]}},{"type":"Feature","properties":{"name":"TsetsenUul-Songino","status":"mitigated"},"geometry":{"type":"LineString","coordinates":[[96.00589,48.75026],[96.00638,48.75034],[95.93018,49.01918],[95.93023,49.01922]]}},{"type":"Feature","properties":{"name":"Jargalan-BayanUul","status":"mitigated"},"geometry":{"type":"LineString","coordinates":[[95.20465,46.99481],[95.33696,47.03025],[95.34488,47.0346],[95.34814,47.03412],[95.3537,47.03671],[95.35513,47.03985],[95.36989,47.03882],[95.39347,47.04246],[95.40646,47.04972],[95.41202,47.0542],[95.41719,47.05408],[95.44794,47.03646],[95.4872,47.05312],[95.49742,47.05339],[95.50122,47.06063],[95.51058,47.06276],[95.52085,47.06307],[95.55588,47.05763],[95.73016,47.00088],[95.77866,46.98807],[95.92537,46.9765],[95.92895,46.97773]]}},{"type":"Feature","properties":{"name":"Erdenekhairkhan-ZavkhanMandal","status":"mitigated"},"geometry":{"type":"LineString","coordinates":[[95.10709,48.31331],[95.21028,48.30986],[95.25536,48.316],[95.25536,48.316],[95.25579,48.3096],[95.71126,48.12378],[95.7228,48.12232],[95.72273,48.12221]]}},{"type":"Feature","properties":{"name":"Baruunturuun-Zuunkhangai","status":"mitigated"},"geometry":{"type":"LineString","coordinates":[[95.45012,49.30979],[95.40536,49.45692],[95.37309,49.48767],[95.36783,49.49453],[95.33953,49.49878],[95.29105,49.52789],[95.25546,49.57781],[95.24735,49.60025],[95.21346,49.63473],[95.17612,49.66347],[95.16823,49.67636],[95.14826,49.69612],[95.13652,49.69929],[95.12496,49.70305],[94.8385,49.7044],[94.82201,49.70455],[94.8131,49.70397],[94.78214,49.70258],[94.76002,49.70174],[94.38821,49.65722]]}},{"type":"Feature","properties":{"name":"Baruunturuun-Tsagaankhairkhan","status":"mitigated"},"geometry":{"type":"LineString","coordinates":[[94.37212,49.6553],[94.25091,49.40579],[94.25008,49.40292]]}},{"type":"Feature","properties":{"name":"Zawkhanmandal-Urgamal","status":"mitigated"},"geometry":{"type":"LineString","coordinates":[[94.29689,48.51112],[94.33883,48.47866],[94.40399,48.46179],[94.4814,48.44081],[94.50527,48.43445],[94.79073,48.35576],[95.10775,48.32359],[95.11346,48.32335]]}},{"type":"Feature","properties":{"name":"Buutsagaan-Khureemaral","status":"mitigated"},"geometry":{"type":"LineString","coordinates":[[98.30871,46.40037],[98.32069,46.3947],[98.35142,46.38622],[98.3929,46.3644],[98.47387,46.3219],[98.52911,46.29255],[98.55181,46.27951],[98.56688,46.26986],[98.57635,46.27012],[98.59377,46.26841],[98.59997,46.26715],[98.62388,46.24276],[98.66804,46.19811]]}},{"type":"Feature","properties":{"name":"Bumbugur-Baatsagaan","status":"mitigated"},"geometry":{"type":"LineString","coordinates":[[99.60303,46.2062],[99.59824,46.19733],[99.60501,46.18291],[99.60894,46.16916],[99.58913,46.09206],[99.59179,46.0609],[99.59547,46.05862],[99.55084,45.9153],[99.53776,45.87594],[99.53776,45.881],[99.52792,45.84552],[99.48929,45.728],[99.4716,45.66548],[99.44155,45.56939]]}},{"type":"Feature","properties":{"name":"Bogd-Jinst","status":"mitigated"},"geometry":{"type":"LineString","coordinates":[[100.58107,45.3968],[100.5963,45.36358],[100.62712,45.33171],[100.67036,45.28676],[100.68642,45.2708],[100.70276,45.25366],[100.74627,45.2142]]}},{"type":"Feature","properties":{"name":"BaruunbayanUlaan-BogdUvkh","status":"mitigated"},"geometry":{"type":"LineString","coordinates":[[101.46748,45.18007],[101.67133,45.15699],[101.68594,45.15072],[101.69321,45.14278],[101.69268,45.1299],[101.69654,45.12282],[101.72238,45.11617],[101.75312,45.09569],[101.7722,45.07154],[101.87227,44.9863],[101.94885,44.92646],[102.08722,44.8047],[102.10496,44.7469],[102.11034,44.7343],[102.16787,44.67469]]}},{"type":"Feature","properties":{"name":"BaruunbayanUlaan-Bogd","status":"mitigated"},"geometry":{"type":"LineString","coordinates":[[100.79782,45.20572],[100.81738,45.21078],[100.84345,45.21765],[100.85337,45.21533],[100.86945,45.21228],[100.93181,45.22744],[100.96399,45.22692],[101.07092,45.22577],[101.08768,45.22552],[101.1273,45.2249],[101.17599,45.22418],[101.27065,45.22262],[101.29341,45.2156],[101.38877,45.18708]]}},{"type":"Feature","properties":{"name":"Yolton-Tseel_Khaliun","status":"mitigated"},"geometry":{"type":"LineString","coordinates":[[95.85657,45.55779],[96.1709,45.92147]]}},{"type":"Feature","properties":{"name":"Altai-Khaliun","status":"mitigated"},"geometry":{"type":"LineString","coordinates":[[96.1709,45.92147],[96.25354,46.37213]]}},{"type":"Feature","properties":{"name":"Biger-Tsogt","status":"mitigated"},"geometry":{"type":"LineString","coordinates":[[96.63699,45.34395],[97.18116,45.70747]]}},{"type":"Feature","properties":{"name":"Chandmani-Erdene","status":"mitigated"},"geometry":{"type":"LineString","coordinates":[[97.76077,45.13395],[97.99183,45.32935]]}},{"type":"Feature","properties":{"name":"Tugrug-Bugat","status":"mitigated"},"geometry":{"type":"LineString","coordinates":[[94.81957,45.841],[94.36863,45.56187]]}},{"type":"Feature","properties":{"name":"Darvi-Tonkhil","status":"mitigated"},"geometry":{"type":"LineString","coordinates":[[93.90587,46.32725],[94.10409,46.48271]]}},{"type":"Feature","properties":{"name":"Darvi-Khukhmorit","status":"mitigated"},"geometry":{"type":"LineString","coordinates":[[93.62024,46.94553],[94.51539,47.34341]]}},{"type":"Feature","properties":{"name":"BayanKhongor-BayanOvoo","status":"mitigated"},"geometry":{"type":"LineString","coordinates":[[100.44592,46.28699],[100.71916,46.19367]]}},{"type":"Feature","properties":{"name":"Asgat-Bayankhairkhan","status":"mitigated"},"geometry":{"type":"LineString","coordinates":[[96.60428,49.43309],[96.34553,49.31579]]}},{"type":"Feature","properties":{"name":"Uulbayan-Munkhkhaan","status":"mitigated"},"geometry":{"type":"LineString","coordinates":[[112.04151,46.98177],[112.33396,46.50196]]}},{"type":"Feature","properties":{"name":"KhalkhGol-Bayankhoshuu","status":"mitigated"},"geometry":{"type":"LineString","coordinates":[[118.39986,48.01392],[118.61536,47.63116]]}},{"type":"Feature","properties":{"name":"Ongon-Naran","status":"mitigated"},"geometry":{"type":"LineString","coordinates":[[113.67907,45.13955],[113.13592,45.36621]]}},{"type":"Feature","properties":{"name":"Yalalt-Khalkhgol","status":"mitigated"},"geometry":{"type":"LineString","coordinates":[[118.41212,47.99228],[118.11189,47.98957]]}},{"type":"Feature","properties":{"name":"Yalalt-BuirLake","status":"mitigated"},"geometry":{"type":"LineString","coordinates":[[118.11189,47.98957],[118.08691,47.93396],[117.87559,47.9135]]}},{"type":"Feature","properties":{"name":"BaruunUrt-TalbulagMine","status":"mitigated"},"geometry":{"type":"LineString","coordinates":[[113.03576,46.91316],[113.26107,46.68195]]}},{"type":"Feature","properties":{"name":"Choir_Railway","status":"mitigated"},"geometry":{"type":"LineString","coordinates":[[107.78256,46.87926],[107.82508,46.82597],[107.92973,46.78955],[108.03531,46.7305],[108.10382,46.70131],[108.23556,46.63653],[108.28127,46.60065],[108.35436,46.48029],[108.40037,46.35908]]}},{"type":"Feature","properties":{"name":"Bukhmurun - Nuurs Khotgor","status":"mitigated"},"geometry":{"type":"LineString","coordinates":[[90.28321,49.66133],[90.89229,49.85339]]}},{"type":"Feature","properties":{"name":"Shinejinst-Bayantsagaan","status":"mitigated"},"geometry":{"type":"LineString","coordinates":[[98.93734,45.00845],[99.28904,44.54826]]}},{"type":"Feature","properties":{"name":"Shinejinst-BayanUndur","status":"mitigated"},"geometry":{"type":"LineString","coordinates":[[99.11519,44.77687],[98.65116,44.79701]]}},{"type":"Feature","properties":{"name":"Delgerkhaan-Jargaltkhaan","status":"mitigated"},"geometry":{"type":"LineString","coordinates":[[109.18739,47.17867],[109.476,47.49357]]}},{"type":"Feature","properties":{"name":"Dashbalbar-Chuck","status":"mitigated"},"geometry":{"type":"LineString","coordinates":[[114.68799,49.53484],[114.40806,49.55353]]}},{"type":"Feature","properties":{"name":"Tsogt-Bayantooroi","status":"mitigated"},"geometry":{"type":"LineString","coordinates":[[96.74657,44.81042],[96.63699,45.34395]]}},{"type":"Feature","properties":{"name":"SaikhanOvoo-MandalOvoo","status":"mitigated"},"geometry":{"type":"LineString","coordinates":[[104.05776,44.65522],[104.04853,44.67073],[104.05159,44.69398],[104.16585,45.0307],[104.15102,45.07256],[104.13153,45.2366],[104.07943,45.32068],[104.07751,45.33034],[104.06794,45.34713],[104.06079,45.3534],[104.05659,45.3617],[104.05259,45.37416],[104.03644,45.40243],[103.90382,45.46387],[103.89777,45.46398]]}},{"type":"Feature","properties":{"name":"Dalanzadgad-Nomgon","status":"mitigated"},"geometry":{"type":"LineString","coordinates":[[105.09474,42.88425],[105.08223,42.89493],[105.07895,42.91348],[105.06305,42.92321],[105.06633,42.96021],[105.08127,42.97698],[104.94189,43.12565],[104.92579,43.12844],[104.82694,43.2033],[104.61632,43.41106],[104.48201,43.54092],[104.46704,43.55011],[104.44038,43.5573]]}},{"type":"Feature","properties":{"name":"TuvshinCamp-Bulgan","status":"mitigated"},"geometry":{"type":"LineString","coordinates":[[104.12162,43.75761],[104.10584,43.76471],[104.07405,43.77928],[104.05834,43.78656],[104.01999,43.80855],[103.96907,43.83711],[103.95219,43.8467],[103.91715,43.86625],[103.89769,43.8771],[103.86429,43.89591],[103.82958,43.91505],[103.79429,43.93461],[103.76043,43.95358],[103.72591,43.97301],[103.6908,43.99251],[103.67428,44.00213],[103.60847,44.03878],[103.57501,44.05713],[103.56424,44.06997],[103.54317,44.09528]]}},{"type":"Feature","properties":{"name":"Noyon-Sevrey","status":"mitigated"},"geometry":{"type":"LineString","coordinates":[[102.1848,43.58435],[102.19597,43.47903],[102.15717,43.27422],[102.14642,43.23622],[102.13351,43.21938],[102.13406,43.21564],[102.12506,43.21101],[102.11766,43.18505],[102.11567,43.17195],[102.1231,43.14781],[102.12548,43.14405]]}},{"type":"Feature","properties":{"name":"Duut-Bulgan","status":"unmitigated"},"geometry":{"type":"LineString","coordinates":[[91.63519,47.52115],[91.09429,46.91657]]}},{"type":"Feature","properties":{"name":"XIX_Oil-MenenMilitaryStation","status":"unmitigated"},"geometry":{"type":"LineString","coordinates":[[116.47367,47.62286],[116.97651,47.64664]]}},{"type":"Feature","properties":{"name":"Bulgan-Khulunbuir","status":"unmitigated"},"geometry":{"type":"LineString","coordinates":[[113.93448,47.99857],[113.91966,47.99387],[113.7225,47.98958],[113.54268,48.0045],[112.96463,47.92716]]}},{"type":"Feature","properties":{"name":"Zag","status":"unmitigated"},"geometry":{"type":"LineString","coordinates":[[99.18519,46.96996],[99.18249,46.9639],[99.1813,46.96106],[99.18045,46.95917],[99.17957,46.95726],[99.17916,46.95625],[99.17879,46.95456],[99.17827,46.95434],[99.17713,46.95142],[99.17444,46.9464],[99.17428,46.94552]]}},{"type":"Feature","properties":{"name":"Umnudelger-KhenteyBag","status":"unmitigated"},"geometry":{"type":"LineString","coordinates":[[109.81212,47.88481],[109.82159,47.88618],[109.83721,47.90845],[109.86977,47.9558],[109.86144,47.96601],[109.84761,47.98305],[109.83951,48.00401],[109.84024,48.02483],[109.82832,48.05491],[109.83181,48.06161],[109.82787,48.08884]]}},{"type":"Feature","properties":{"name":"TevshiinGobi-Adaatsag","status":"unmitigated"},"geometry":{"type":"LineString","coordinates":[[105.73712,46.39069],[105.81778,46.30502],[105.87311,46.24747],[106.12519,46.00079],[106.12994,45.99698],[106.13258,45.99307]]}},{"type":"Feature","properties":{"name":"Tugrug-Sharga","status":"unmitigated"},"geometry":{"type":"LineString","coordinates":[[94.81957,45.841],[95.2819,46.29182]]}},{"type":"Feature","properties":{"name":"TsetsegSum","status":"unmitigated"},"geometry":{"type":"LineString","coordinates":[[93.35603,46.83968],[93.25995,46.59766]]}},{"type":"Feature","properties":{"name":"Bayanlig-Bayangobi","status":"unmitigated"},"geometry":{"type":"LineString","coordinates":[[100.3932,44.73373],[100.83686,44.53752]]}},{"type":"Feature","properties":{"name":"Tudevtei-Asgat","status":"unmitigated"},"geometry":{"type":"LineString","coordinates":[[96.60428,49.43309],[96.54348,48.98846]]}},{"type":"Feature","properties":{"name":"Asgat-Bayantes","status":"unmitigated"},"geometry":{"type":"LineString","coordinates":[[96.60428,49.43309],[96.37238,49.70127]]}},{"type":"Feature","properties":{"name":"Tarialan-Erdenebulgan","status":"unmitigated"},"geometry":{"type":"LineString","coordinates":[[101.57804,50.12403],[101.98499,49.61903]]}},{"type":"Feature","properties":{"name":"Arbulag-Bayanzurkh","status":"unmitigated"},"geometry":{"type":"LineString","coordinates":[[99.43498,49.91822],[98.97062,50.19231]]}},{"type":"Feature","properties":{"name":"Bayanjargalan-Undurshil","status":"unmitigated"},"geometry":{"type":"LineString","coordinates":[[108.27424,45.22808],[107.99518,45.75285]]}},{"type":"Feature","properties":{"name":"Urgun-Erdene","status":"unmitigated"},"geometry":{"type":"LineString","coordinates":[[111.08568,44.43389],[110.77938,44.72578]]}},{"type":"Feature","properties":{"name":"Khyargas-Zuungobi","status":"unmitigated"},"geometry":{"type":"LineString","coordinates":[[93.77348,49.65431],[93.80308,49.90052]]}},{"type":"Feature","properties":{"name":"Taishir-Jargalan","status":"unmitigated"},"geometry":{"type":"LineString","coordinates":[[95.93537,46.98622],[96.50857,46.7055]]}},{"type":"Feature","properties":{"name":"Myangad-Buyant","status":"unmitigated"},"geometry":{"type":"LineString","coordinates":[[91.77069,48.17088],[91.92211,48.24652]]}},{"type":"Feature","properties":{"name":"KhovdAimag-KhovdSoum","status":"unmitigated"},"geometry":{"type":"LineString","coordinates":[[91.37986,48.12418],[91.66101,47.97903]]}},{"type":"Feature","properties":{"name":"Sagsai-Ulaankhus","status":"unmitigated"},"geometry":{"type":"LineString","coordinates":[[89.44167,49.04554],[89.44183,49.0455],[89.65491,48.91801]]}},{"type":"Feature","properties":{"name":"Nogoon Nuur - Bukhmurun","status":"unmitigated"},"geometry":{"type":"LineString","coordinates":[[90.2832,49.66133],[90.22182,49.61614]]}},{"type":"Feature","properties":{"name":"Altantsugts - Khovd","status":"unmitigated"},"geometry":{"type":"LineString","coordinates":[[90.91075,49.279],[90.45605,49.05779]]}},{"type":"Feature","properties":{"name":"Ulgii Sum - Naranbulag","status":"unmitigated"},"geometry":{"type":"LineString","coordinates":[[92.5808,49.37821],[92.03964,49.02234]]}},{"type":"Feature","properties":{"name":"Ulaangom - Turgen","status":"unmitigated"},"geometry":{"type":"LineString","coordinates":[[91.68046,50.09455],[92.07909,49.97428]]}},{"type":"Feature","properties":{"name":"Davst - Boomt","status":"unmitigated"},"geometry":{"type":"LineString","coordinates":[[92.0691,50.70017],[92.40246,50.61553]]}},{"type":"Feature","properties":{"name":"Tes - Sharsuuri","status":"unmitigated"},"geometry":{"type":"LineString","coordinates":[[93.62112,50.61254],[93.59559,50.47385]]}},{"type":"Feature","properties":{"name":"ZuunKhangai-Tes","status":"unmitigated"},"geometry":{"type":"LineString","coordinates":[[95.79391,49.65735],[95.46265,49.29659]]}},{"type":"Feature","properties":{"name":"Renchinlkhumbe-Tsagaannuur","status":"unmitigated"},"geometry":{"type":"LineString","coordinates":[[99.67043,51.11797],[99.33879,51.36139]]}},{"type":"Feature","properties":{"name":"UlaanUul-Renchinlkhumbe","status":"unmitigated"},"geometry":{"type":"LineString","coordinates":[[99.67043,51.11797],[99.22355,50.68338]]}},{"type":"Feature","properties":{"name":"ChandmaniUndur-TsagaanUur","status":"unmitigated"},"geometry":{"type":"LineString","coordinates":[[101.52574,50.54491],[100.93286,50.49721]]}},{"type":"Feature","properties":{"name":"Gurvantes","status":"unmitigated"},"geometry":{"type":"LineString","coordinates":[[101.05218,43.22232],[101.21358,43.02055]]}},{"type":"Feature","properties":{"name":"BaruunUrt-Asgat","status":"unmitigated"},"geometry":{"type":"LineString","coordinates":[[113.58487,46.36982],[113.2817,46.68714]]}},{"type":"Feature","properties":{"name":"Uulbayan-Tuvshinshiree","status":"wooden"},"geometry":{"type":"LineString","coordinates":[[112.33396,46.50196],[111.81247,46.19841]]}},{"type":"Feature","properties":{"name":"Galshir-Delgerekh","status":"wooden"},"geometry":{"type":"LineString","coordinates":[[111.21861,45.79387],[110.85435,46.22117]]}},{"type":"Feature","properties":{"name":"Sagsai-Buyant","status":"wooden"},"geometry":{"type":"LineString","coordinates":[[89.54064,48.5734],[89.54062,48.5734],[89.65474,48.91785]]}},{"type":"Feature","properties":{"name":"Buyant-Altai","status":"wooden"},"geometry":{"type":"LineString","coordinates":[[89.50991,48.30631],[89.5407,48.57327]]}},{"type":"Feature","properties":{"name":"Ulaankhus-Tsengel","status":"wooden"},"geometry":{"type":"LineString","coordinates":[[89.15494,48.96511],[89.4415,49.04561]]}},{"type":"Feature","properties":{"name":"Ulaankhus-SogoogBag","status":"wooden"},"geometry":{"type":"LineString","coordinates":[[89.30482,49.16719],[89.44156,49.0456]]}},{"type":"Feature","properties":{"name":"Sogoog Bag - Khukh Khutul Bag","status":"wooden"},"geometry":{"type":"LineString","coordinates":[[88.91062,49.26183],[89.30426,49.16767]]}},{"type":"Feature","properties":{"name":"Tsagaan Nuur - Ulaan Baishint","status":"wooden"},"geometry":{"type":"LineString","coordinates":[[89.44154,49.6435],[89.73774,49.50964]]}},{"type":"Feature","properties":{"name":"Choibalsan - Bayantumen","status":"wooden"},"geometry":{"type":"LineString","coordinates":[[114.55535,48.07836],[114.38242,48.05275]]}},{"type":"Feature","properties":{"name":"Zag-Jargalant","status":"wooden"},"geometry":{"type":"LineString","coordinates":[[99.48318,47.02683],[99.15944,46.93573]]}},{"type":"Feature","properties":{"name":"Zag-Gurvanbulag","status":"wooden"},"geometry":{"type":"LineString","coordinates":[[99.15944,46.93573],[98.58097,47.22465]]}},{"type":"Feature","properties":{"name":"Bayankhongor-Erdenetsogt","status":"wooden"},"geometry":{"type":"LineString","coordinates":[[100.82053,46.42278],[100.71916,46.19367]]}},{"type":"Feature","properties":{"name":"Guulin-Shiluustei","status":"wooden"},"geometry":{"type":"LineString","coordinates":[[97.28349,46.56911],[97.19164,46.79809]]}},{"type":"Feature","properties":{"name":"Guulin-Delger","status":"wooden"},"geometry":{"type":"LineString","coordinates":[[97.28349,46.56911],[97.3631,46.3517]]}},{"type":"Feature","properties":{"name":"Uyench-ALtai","status":"wooden"},"geometry":{"type":"LineString","coordinates":[[92.27674,45.82191],[92.03817,46.07028]]}},{"type":"Feature","properties":{"name":"Khurmen-Bayandalai","status":"wooden"},"geometry":{"type":"LineString","coordinates":[[104.06713,43.30203],[103.51451,43.45054]]}},{"type":"Feature","properties":{"name":"Dalanzadgad-Khankhongor","status":"wooden"},"geometry":{"type":"LineString","coordinates":[[104.43205,43.56621],[104.47252,43.78024]]}},{"type":"Feature","properties":{"name":"Mandakh","status":"wooden"},"geometry":{"type":"LineString","coordinates":[[108.4933,44.13299],[108.24539,44.39994]]}},{"type":"Feature","properties":{"name":"Delgertsogt-Deren","status":"wooden"},"geometry":{"type":"LineString","coordinates":[[106.71747,46.21163],[106.3877,46.12621]]}},{"type":"Feature","properties":{"name":"Batnorov-BayanOvoo","status":"wooden"},"geometry":{"type":"LineString","coordinates":[[112.11825,47.78185],[111.49164,47.94734]]}},{"type":"Feature","properties":{"name":"Undurkhaan-BayanKhutag","status":"wooden"},"geometry":{"type":"LineString","coordinates":[[110.8188,47.17205],[110.66837,47.31864]]}},{"type":"Feature","properties":{"name":"BayanOvoo-Tumentsogt","status":"wooden"},"geometry":{"type":"LineString","coordinates":[[112.11825,47.78185],[112.38334,47.55989]]}},{"type":"Feature","properties":{"name":"BaruunUrt-Sukhbaatar","status":"wooden"},"geometry":{"type":"LineString","coordinates":[[113.88687,46.77644],[113.28159,46.68714]]}},{"type":"Feature","properties":{"name":"Mardai_Gurvanzagal","status":"wooden"},"geometry":{"type":"LineString","coordinates":[[114.88282,49.14718],[114.11642,49.09778]]}},{"type":"Feature","properties":{"name":"Mardai-Dashbalbar","status":"wooden"},"geometry":{"type":"LineString","coordinates":[[114.40806,49.55353],[114.11642,49.09778]]}},{"type":"Feature","properties":{"name":"BayanKhongor-Ulziit","status":"wooden"},"geometry":{"type":"LineString","coordinates":[[100.81684,46.06842],[100.71916,46.19367]]}},{"type":"Feature","properties":{"name":"KherlenBayanUlaan-Delgerkhaan","status":"wooden"},"geometry":{"type":"LineString","coordinates":[[109.18739,47.17867],[108.73967,47.21512]]}},{"type":"Feature","properties":{"name":"Khalzan-Bayandelger","status":"alt"},"geometry":{"type":"LineString","coordinates":[[112.95143,46.17023],[112.94551,46.17045],[112.9423,46.16526],[112.91424,46.13765],[112.87178,46.09656],[112.85974,46.08745],[112.75414,46.0104],[112.62956,45.92234],[112.40012,45.75708],[112.37259,45.73399],[112.3596,45.72687],[112.38952,45.71138]]}},{"type":"Feature","properties":{"name":"Tsagaanchuluut-Otgon","status":"alt"},"geometry":{"type":"LineString","coordinates":[[96.68628,47.11032],[96.69059,47.10616],[96.69655,47.1056],[96.70455,47.10815],[96.75091,47.09882],[96.78884,47.09905],[96.95783,47.1294],[97.01201,47.12738],[97.21093,47.13851],[97.22665,47.14371],[97.32933,47.18455],[97.37644,47.19648],[97.44916,47.22039],[97.47619,47.22135],[97.51514,47.21714],[97.57186,47.2175],[97.60451,47.21111],[97.60588,47.20817]]}},{"type":"Feature","properties":{"name":"Erdenekhairkhan-Durvuljin","status":"alt"},"geometry":{"type":"LineString","coordinates":[[94.99998,47.65449],[95.08245,47.74669],[95.19295,47.7991],[95.26767,47.84431],[95.45305,47.91555],[95.49922,47.97862],[95.72273,48.12221]]}},{"type":"Feature","properties":{"name":"Khureemaral-Bayanbulag","status":"alt"},"geometry":{"type":"LineString","coordinates":[[98.10045,46.79582],[98.13956,46.74955],[98.19153,46.69298],[98.24225,46.65894],[98.24813,46.63914],[98.24993,46.63662],[98.25524,46.61511],[98.27348,46.55434],[98.28177,46.51174],[98.28224,46.49199],[98.2807,46.48884],[98.27694,46.46661],[98.28779,46.42499]]}},{"type":"Feature","properties":{"name":"BayanOvoo-Galuut","status":"alt"},"geometry":{"type":"LineString","coordinates":[[100.44213,46.29128],[100.34363,46.4249],[100.32808,46.43475],[100.29701,46.47462],[100.27778,46.49085],[100.23084,46.52359],[100.2166,46.56559],[100.19348,46.58187],[100.18689,46.66122],[100.1517,46.69428]]}}]}